CCSDS_OMM_VERS = 2.0
CREATION_DATE  = 
ORIGINATOR     = 

OBJECT_NAME    = UNKNOWN
OBJECT_ID      = 
CENTER_NAME    = EARTH
REF_FRAME      = TEME
TIME_SYSTEM    = UTC
MEAN_ELEMENT_THEORY = SGP/SGP4

EPOCH          = 2026-03-13T04:39:51.253344
MEAN_MOTION    = 13.76921577
ECCENTRICITY   = .0021878
INCLINATION    = 100.0583
RA_OF_ASC_NODE = 65.5372
ARG_OF_PERICENTER = 38.9351
MEAN_ANOMALY   = 321.3368

EPHEMERIS_TYPE = 0
CLASSIFICATION_TYPE = U
NORAD_CAT_ID   = 81893
ELEMENT_SET_NO = 999
REV_AT_EPOCH   = 61652
BSTAR          = .12607E-2
MEAN_MOTION_DOT = .1196E-4
MEAN_MOTION_DDOT = 0

CCSDS_OMM_VERS = 2.0
CREATION_DATE  = 
ORIGINATOR     = 

OBJECT_NAME    = UNKNOWN
OBJECT_ID      = 
CENTER_NAME    = EARTH
REF_FRAME      = TEME
TIME_SYSTEM    = UTC
MEAN_ELEMENT_THEORY = SGP/SGP4

EPOCH          = 2026-03-10T18:30:14.199552
MEAN_MOTION    = 13.20481496
ECCENTRICITY   = .0169492
INCLINATION    = 102.4111
RA_OF_ASC_NODE = 192.4411
ARG_OF_PERICENTER = 28.5064
MEAN_ANOMALY   = 332.5188

EPHEMERIS_TYPE = 0
CLASSIFICATION_TYPE = U
NORAD_CAT_ID   = 81899
ELEMENT_SET_NO = 999
REV_AT_EPOCH   = 59060
BSTAR          = .43583E-2
MEAN_MOTION_DOT = .1846E-4
MEAN_MOTION_DDOT = 0

CCSDS_OMM_VERS = 2.0
CREATION_DATE  = 
ORIGINATOR     = 

OBJECT_NAME    = UNKNOWN
OBJECT_ID      = 
CENTER_NAME    = EARTH
REF_FRAME      = TEME
TIME_SYSTEM    = UTC
MEAN_ELEMENT_THEORY = SGP/SGP4

EPOCH          = 2026-03-03T02:04:07.928832
MEAN_MOTION    = 13.15432327
ECCENTRICITY   = .0843493
INCLINATION    = 65.7062
RA_OF_ASC_NODE = 230.7222
ARG_OF_PERICENTER = 79.7316
MEAN_ANOMALY   = 289.7632

EPHEMERIS_TYPE = 0
CLASSIFICATION_TYPE = U
NORAD_CAT_ID   = 81921
ELEMENT_SET_NO = 999
REV_AT_EPOCH   = 3635
BSTAR          = .80283E-3
MEAN_MOTION_DOT = .1918E-4
MEAN_MOTION_DDOT = 0

CCSDS_OMM_VERS = 2.0
CREATION_DATE  = 
ORIGINATOR     = 

OBJECT_NAME    = UNKNOWN
OBJECT_ID      = 
CENTER_NAME    = EARTH
REF_FRAME      = TEME
TIME_SYSTEM    = UTC
MEAN_ELEMENT_THEORY = SGP/SGP4

EPOCH          = 2026-03-07T10:22:39.081792
MEAN_MOTION    = 12.42642894
ECCENTRICITY   = .0677948
INCLINATION    = 66.4243
RA_OF_ASC_NODE = 349.7242
ARG_OF_PERICENTER = 310.5900
MEAN_ANOMALY   = 161.2817

EPHEMERIS_TYPE = 0
CLASSIFICATION_TYPE = U
NORAD_CAT_ID   = 81946
ELEMENT_SET_NO = 999
REV_AT_EPOCH   = 55840
BSTAR          = .46517E-3
MEAN_MOTION_DOT = .9E-6
MEAN_MOTION_DDOT = 0

CCSDS_OMM_VERS = 2.0
CREATION_DATE  = 
ORIGINATOR     = 

OBJECT_NAME    = UNKNOWN
OBJECT_ID      = 
CENTER_NAME    = EARTH
REF_FRAME      = TEME
TIME_SYSTEM    = UTC
MEAN_ELEMENT_THEORY = SGP/SGP4

EPOCH          = 2026-02-15T06:28:00.562080
MEAN_MOTION    = 14.53453444
ECCENTRICITY   = .0369408
INCLINATION    = 66.0766
RA_OF_ASC_NODE = 348.0426
ARG_OF_PERICENTER = 102.1486
MEAN_ANOMALY   = 262.1250

EPHEMERIS_TYPE = 0
CLASSIFICATION_TYPE = U
NORAD_CAT_ID   = 81947
ELEMENT_SET_NO = 999
REV_AT_EPOCH   = 64039
BSTAR          = .46514E-3
MEAN_MOTION_DOT = .4726E-4
MEAN_MOTION_DDOT = 0

CCSDS_OMM_VERS = 2.0
CREATION_DATE  = 
ORIGINATOR     = 

OBJECT_NAME    = UNKNOWN
OBJECT_ID      = 
CENTER_NAME    = EARTH
REF_FRAME      = TEME
TIME_SYSTEM    = UTC
MEAN_ELEMENT_THEORY = SGP/SGP4

EPOCH          = 2026-03-12T21:11:20.539968
MEAN_MOTION    = 13.95861635
ECCENTRICITY   = .0034022
INCLINATION    = 66.5856
RA_OF_ASC_NODE = 34.9017
ARG_OF_PERICENTER = 15.1579
MEAN_ANOMALY   = 345.0512

EPHEMERIS_TYPE = 0
CLASSIFICATION_TYPE = U
NORAD_CAT_ID   = 81964
ELEMENT_SET_NO = 999
REV_AT_EPOCH   = 62662
BSTAR          = .30068E-3
MEAN_MOTION_DOT = .334E-5
MEAN_MOTION_DDOT = 0

CCSDS_OMM_VERS = 2.0
CREATION_DATE  = 
ORIGINATOR     = 

OBJECT_NAME    = UNKNOWN
OBJECT_ID      = 
CENTER_NAME    = EARTH
REF_FRAME      = TEME
TIME_SYSTEM    = UTC
MEAN_ELEMENT_THEORY = SGP/SGP4

EPOCH          = 2026-03-10T10:20:42.526464
MEAN_MOTION    = 15.13316668
ECCENTRICITY   = .0003865
INCLINATION    = 86.6825
RA_OF_ASC_NODE = 115.3208
ARG_OF_PERICENTER = 172.6099
MEAN_ANOMALY   = 187.5198

EPHEMERIS_TYPE = 0
CLASSIFICATION_TYPE = U
NORAD_CAT_ID   = 81969
ELEMENT_SET_NO = 999
REV_AT_EPOCH   = 45342
BSTAR          = .65147E-3
MEAN_MOTION_DOT = .11635E-3
MEAN_MOTION_DDOT = 0

CCSDS_OMM_VERS = 2.0
CREATION_DATE  = 
ORIGINATOR     = 

OBJECT_NAME    = UNKNOWN
OBJECT_ID      = 
CENTER_NAME    = EARTH
REF_FRAME      = TEME
TIME_SYSTEM    = UTC
MEAN_ELEMENT_THEORY = SGP/SGP4

EPOCH          = 2026-03-04T23:05:58.793856
MEAN_MOTION    = 14.04989219
ECCENTRICITY   = .0516129
INCLINATION    = 65.7446
RA_OF_ASC_NODE = 268.6872
ARG_OF_PERICENTER = 256.6593
MEAN_ANOMALY   = 97.6465

EPHEMERIS_TYPE = 0
CLASSIFICATION_TYPE = U
NORAD_CAT_ID   = 81995
ELEMENT_SET_NO = 999
REV_AT_EPOCH   = 61577
BSTAR          = .96399E-3
MEAN_MOTION_DOT = .5163E-4
MEAN_MOTION_DDOT = 0

CCSDS_OMM_VERS = 2.0
CREATION_DATE  = 
ORIGINATOR     = 

OBJECT_NAME    = UNKNOWN
OBJECT_ID      = 
CENTER_NAME    = EARTH
REF_FRAME      = TEME
TIME_SYSTEM    = UTC
MEAN_ELEMENT_THEORY = SGP/SGP4

EPOCH          = 2026-03-13T08:46:20.966880
MEAN_MOTION    = 14.33131792
ECCENTRICITY   = .0230581
INCLINATION    = 97.9380
RA_OF_ASC_NODE = 218.5433
ARG_OF_PERICENTER = 170.6162
MEAN_ANOMALY   = 189.9446

EPHEMERIS_TYPE = 0
CLASSIFICATION_TYPE = U
NORAD_CAT_ID   = 82043
ELEMENT_SET_NO = 999
REV_AT_EPOCH   = 58682
BSTAR          = .1396E-2
MEAN_MOTION_DOT = .5112E-4
MEAN_MOTION_DDOT = 0

CCSDS_OMM_VERS = 2.0
CREATION_DATE  = 
ORIGINATOR     = 

OBJECT_NAME    = UNKNOWN
OBJECT_ID      = 
CENTER_NAME    = EARTH
REF_FRAME      = TEME
TIME_SYSTEM    = UTC
MEAN_ELEMENT_THEORY = SGP/SGP4

EPOCH          = 2026-02-15T11:26:49.047648
MEAN_MOTION    = 14.36892613
ECCENTRICITY   = .0090792
INCLINATION    = 98.7424
RA_OF_ASC_NODE = 137.9574
ARG_OF_PERICENTER = 69.8098
MEAN_ANOMALY   = 291.2824

EPHEMERIS_TYPE = 0
CLASSIFICATION_TYPE = U
NORAD_CAT_ID   = 82051
ELEMENT_SET_NO = 999
REV_AT_EPOCH   = 58170
BSTAR          = .20421E-2
MEAN_MOTION_DOT = .6292E-4
MEAN_MOTION_DDOT = 0

CCSDS_OMM_VERS = 2.0
CREATION_DATE  = 
ORIGINATOR     = 

OBJECT_NAME    = UNKNOWN
OBJECT_ID      = 
CENTER_NAME    = EARTH
REF_FRAME      = TEME
TIME_SYSTEM    = UTC
MEAN_ELEMENT_THEORY = SGP/SGP4

EPOCH          = 2026-03-14T10:54:28.777536
MEAN_MOTION    = 14.39500672
ECCENTRICITY   = .0205357
INCLINATION    = 97.7389
RA_OF_ASC_NODE = 145.8340
ARG_OF_PERICENTER = 8.0331
MEAN_ANOMALY   = 352.4065

EPHEMERIS_TYPE = 0
CLASSIFICATION_TYPE = U
NORAD_CAT_ID   = 82073
ELEMENT_SET_NO = 999
REV_AT_EPOCH   = 58831
BSTAR          = .55197E-3
MEAN_MOTION_DOT = .216E-4
MEAN_MOTION_DDOT = 0

CCSDS_OMM_VERS = 2.0
CREATION_DATE  = 
ORIGINATOR     = 

OBJECT_NAME    = UNKNOWN
OBJECT_ID      = 
CENTER_NAME    = EARTH
REF_FRAME      = TEME
TIME_SYSTEM    = UTC
MEAN_ELEMENT_THEORY = SGP/SGP4

EPOCH          = 2026-03-09T03:38:13.060320
MEAN_MOTION    = 14.15908779
ECCENTRICITY   = .0084567
INCLINATION    = 99.0127
RA_OF_ASC_NODE = 142.0565
ARG_OF_PERICENTER = 157.7190
MEAN_ANOMALY   = 202.7692

EPHEMERIS_TYPE = 0
CLASSIFICATION_TYPE = U
NORAD_CAT_ID   = 82139
ELEMENT_SET_NO = 999
REV_AT_EPOCH   = 49234
BSTAR          = .16135E-2
MEAN_MOTION_DOT = .3245E-4
MEAN_MOTION_DDOT = 0

