UNKNOWN                 
1 81893U          26072.19434321  .00001196  00000+0  12607-2 0  9997
2 81893 100.0583  65.5372 0021878  38.9351 321.3368 13.76921577616525
UNKNOWN                 
1 81899U          26069.77099768  .00001846  00000+0  43583-2 0  9994
2 81899 102.4111 192.4411 0169492  28.5064 332.5188 13.20481496590603
UNKNOWN                 
1 81921U          26062.08620288  .00001918  00000+0  80283-3 0  9993
2 81921  65.7062 230.7222 0843493  79.7316 289.7632 13.15432327 36356
UNKNOWN                 
1 81946U          26066.43239678  .00000090  00000+0  46517-3 0  9994
2 81946  66.4243 349.7242 0677948 310.5900 161.2817 12.42642894558405
UNKNOWN                 
1 81947U          26046.26945095  .00004726  00000+0  46514-3 0  9998
2 81947  66.0766 348.0426 0369408 102.1486 262.1250 14.53453444640398
UNKNOWN                 
1 81964U          26071.88287662  .00000334  00000+0  30068-3 0  9990
2 81964  66.5856  34.9017 0034022  15.1579 345.0512 13.95861635626628
UNKNOWN                 
1 81969U          26069.43104776  .00011635  00000+0  65147-3 0  9999
2 81969  86.6825 115.3208 0003865 172.6099 187.5198 15.13316668453423
UNKNOWN                 
1 81995U          26063.96248604  .00005163  00000+0  96399-3 0  9991
2 81995  65.7446 268.6872 0516129 256.6593  97.6465 14.04989219615775
UNKNOWN                 
1 82043U          26072.36552045  .00005112  00000+0  13960-2 0  9993
2 82043  97.9380 218.5433 0230581 170.6162 189.9446 14.33131792586827
UNKNOWN                 
1 82051U          26046.47695657  .00006292  00000+0  20421-2 0  9992
2 82051  98.7424 137.9574 0090792  69.8098 291.2824 14.36892613581707
UNKNOWN                 
1 82073U          26073.45449974  .00002160  00000+0  55197-3 0  9992
2 82073  97.7389 145.8340 0205357   8.0331 352.4065 14.39500672588314
UNKNOWN                 
1 82139U          26068.15154005  .00003245  00000+0  16135-2 0  9997
2 82139  99.0127 142.0565 0084567 157.7190 202.7692 14.15908779492347
